[{"OBJECT_NAME":"SCS-01 G","OBJECT_ID":"2025-100G","EPOCH":"2026-03-09T22:06:35.300160","MEAN_MOTION":15.25626619,"ECCENTRICITY":0.00115239,"INCLINATION":97.3761,"RA_OF_ASC_NODE":145.2582,"ARG_OF_PERICENTER":298.6971,"MEAN_ANOMALY":61.3108,"EPHEMERIS_TYPE":0,"CLASSIFICATION_TYPE":"U","NORAD_CAT_ID":63988,"ELEMENT_SET_NO":999,"REV_AT_EPOCH":4562,"BSTAR":0.00025501168,"MEAN_MOTION_DOT":6.423e-5,"MEAN_MOTION_DDOT":0},{"OBJECT_NAME":"STARLINK-35439","OBJECT_ID":"2025-259K","EPOCH":"2026-03-09T22:47:37.272480","MEAN_MOTION":15.27602329,"ECCENTRICITY":0.00011733,"INCLINATION":43.0027,"RA_OF_ASC_NODE":272.6558,"ARG_OF_PERICENTER":24.4646,"MEAN_ANOMALY":335.6262,"EPHEMERIS_TYPE":0,"CLASSIFICATION_TYPE":"U","NORAD_CAT_ID":66431,"ELEMENT_SET_NO":999,"REV_AT_EPOCH":1953,"BSTAR":0.0011824295,"MEAN_MOTION_DOT":0.00032441,"MEAN_MOTION_DDOT":0}]
